{
  "type": "FeatureCollection",
  "features": [
    {
      "type": "Feature",
      "properties": {
        "norad_id": 35885,
        "name": "COSMOS 2251 DEB",
        "group": "cosmos-2251-debris",
        "lat": -73.84826294513135,
        "lon": -146.4183137440235,
        "alt_km": 777.3870699177414,
        "timestamp": "2025-12-12T14:39:18.329187+00:00",
        "meta_object_name": "COSMOS 2251 DEB",
        "meta_object_id": "1993-036ATY",
        "meta_epoch": "2025-12-11T14:00:29.145024",
        "meta_mean_motion": 14.3751698,
        "meta_eccentricity": 0.00231325,
        "meta_inclination": 74.0283,
        "meta_ra_of_asc_node": 296.9234,
        "meta_arg_of_pericenter": 17.6536,
        "meta_mean_anomaly": 342.5416,
        "meta_ephemeris_type": 0,
        "meta_classification_type": "U",
        "meta_norad_cat_id": 35885,
        "meta_element_set_no": 999,
        "meta_rev_at_epoch": 64999,
        "meta_bstar": 0.0005257643,
        "meta_mean_motion_dot": 1.554e-05,
        "meta_mean_motion_ddot": 0,
        "tle_line1": "1 35885U 93036ATY 25345.58367066  .00001554  00000+0  52576-3 0  9992",
        "tle_line2": "2 35885  74.0283 296.9234 0023132  17.6536 342.5416 14.37516980649995"
      },
      "geometry": {
        "type": "Point",
        "coordinates": [
          -146.4183137440235,
          -73.84826294513135
        ]
      }
    },
    {
      "type": "Feature",
      "properties": {
        "norad_id": 35888,
        "name": "COSMOS 2251 DEB",
        "group": "cosmos-2251-debris",
        "lat": -35.86189325408324,
        "lon": -171.14274302259003,
        "alt_km": 703.4045387308479,
        "timestamp": "2025-12-12T14:39:18.329196+00:00",
        "meta_object_name": "COSMOS 2251 DEB",
        "meta_object_id": "1993-036AUB",
        "meta_epoch": "2025-12-12T07:04:48.029376",
        "meta_mean_motion": 14.58316356,
        "meta_eccentricity": 0.00482275,
        "meta_inclination": 74.0337,
        "meta_ra_of_asc_node": 357.5138,
        "meta_arg_of_pericenter": 129.7983,
        "meta_mean_anomaly": 230.7443,
        "meta_ephemeris_type": 0,
        "meta_classification_type": "U",
        "meta_norad_cat_id": 35888,
        "meta_element_set_no": 999,
        "meta_rev_at_epoch": 86267,
        "meta_bstar": 0.00060064021,
        "meta_mean_motion_dot": 2.795e-05,
        "meta_mean_motion_ddot": 0,
        "tle_line1": "1 35888U 93036AUB 25346.29500034  .00002795  00000+0  60064-3 0  9997",
        "tle_line2": "2 35888  74.0337 357.5138 0048227 129.7983 230.7443 14.58316356862676"
      },
      "geometry": {
        "type": "Point",
        "coordinates": [
          -171.14274302259003,
          -35.86189325408324
        ]
      }
    },
    {
      "type": "Feature",
      "properties": {
        "norad_id": 35890,
        "name": "COSMOS 2251 DEB",
        "group": "cosmos-2251-debris",
        "lat": -70.52708817974346,
        "lon": 117.52924953757302,
        "alt_km": 720.2252865524497,
        "timestamp": "2025-12-12T14:39:18.329205+00:00",
        "meta_object_name": "COSMOS 2251 DEB",
        "meta_object_id": "1993-036AUD",
        "meta_epoch": "2025-12-11T11:06:40.401504",
        "meta_mean_motion": 14.57450007,
        "meta_eccentricity": 0.00537284,
        "meta_inclination": 73.9357,
        "meta_ra_of_asc_node": 245.1419,
        "meta_arg_of_pericenter": 9.9774,
        "meta_mean_anomaly": 350.2442,
        "meta_ephemeris_type": 0,
        "meta_classification_type": "U",
        "meta_norad_cat_id": 35890,
        "meta_element_set_no": 999,
        "meta_rev_at_epoch": 65132,
        "meta_bstar": 0.0035408438,
        "meta_mean_motion_dot": 0.00016406,
        "meta_mean_motion_ddot": 0,
        "tle_line1": "1 35890U 93036AUD 25345.46296761  .00016406  00000+0  35408-2 0  9994",
        "tle_line2": "2 35890  73.9357 245.1419 0053728   9.9774 350.2442 14.57450007651328"
      },
      "geometry": {
        "type": "Point",
        "coordinates": [
          117.52924953757302,
          -70.52708817974346
        ]
      }
    },
    {
      "type": "Feature",
      "properties": {
        "norad_id": 35891,
        "name": "COSMOS 2251 DEB",
        "group": "cosmos-2251-debris",
        "lat": 56.58693501273457,
        "lon": -111.65071666770122,
        "alt_km": 467.6930255945572,
        "timestamp": "2025-12-12T14:39:18.329214+00:00",
        "meta_object_name": "COSMOS 2251 DEB",
        "meta_object_id": "1993-036AUE",
        "meta_epoch": "2025-12-10T15:08:56.488704",
        "meta_mean_motion": 15.33032056,
        "meta_eccentricity": 0.0044173,
        "meta_inclination": 73.9885,
        "meta_ra_of_asc_node": 98.397,
        "meta_arg_of_pericenter": 228.9907,
        "meta_mean_anomaly": 130.7474,
        "meta_ephemeris_type": 0,
        "meta_classification_type": "U",
        "meta_norad_cat_id": 35891,
        "meta_element_set_no": 999,
        "meta_rev_at_epoch": 67188,
        "meta_bstar": 0.0020263,
        "meta_mean_motion_dot": 0.00067253,
        "meta_mean_motion_ddot": 0,
        "tle_line1": "1 35891U 93036AUE 25344.63120936  .00067253  00000+0  20263-2 0  9992",
        "tle_line2": "2 35891  73.9885  98.3970 0044173 228.9907 130.7474 15.33032056671884"
      },
      "geometry": {
        "type": "Point",
        "coordinates": [
          -111.65071666770122,
          56.58693501273457
        ]
      }
    },
    {
      "type": "Feature",
      "properties": {
        "norad_id": 35895,
        "name": "COSMOS 2251 DEB",
        "group": "cosmos-2251-debris",
        "lat": 38.55445432527892,
        "lon": 154.7146094497406,
        "alt_km": 797.1052167334701,
        "timestamp": "2025-12-12T14:39:18.329223+00:00",
        "meta_object_name": "COSMOS 2251 DEB",
        "meta_object_id": "1993-036AUJ",
        "meta_epoch": "2025-12-11T07:10:31.732032",
        "meta_mean_motion": 14.01513994,
        "meta_eccentricity": 0.01987879,
        "meta_inclination": 74.0502,
        "meta_ra_of_asc_node": 350.1634,
        "meta_arg_of_pericenter": 88.7843,
        "meta_mean_anomaly": 273.6056,
        "meta_ephemeris_type": 0,
        "meta_classification_type": "U",
        "meta_norad_cat_id": 35895,
        "meta_element_set_no": 999,
        "meta_rev_at_epoch": 58992,
        "meta_bstar": 0.0020881347,
        "meta_mean_motion_dot": 3.73e-05,
        "meta_mean_motion_ddot": 0,
        "tle_line1": "1 35895U 93036AUJ 25345.29897838  .00003730  00000+0  20881-2 0  9997",
        "tle_line2": "2 35895  74.0502 350.1634 0198787  88.7843 273.6056 14.01513994589929"
      },
      "geometry": {
        "type": "Point",
        "coordinates": [
          154.7146094497406,
          38.55445432527892
        ]
      }
    },
    {
      "type": "Feature",
      "properties": {
        "norad_id": 35898,
        "name": "COSMOS 2251 DEB",
        "group": "cosmos-2251-debris",
        "lat": -39.78730817202442,
        "lon": -76.11675239722202,
        "alt_km": 619.1463486118137,
        "timestamp": "2025-12-12T14:39:18.329232+00:00",
        "meta_object_name": "COSMOS 2251 DEB",
        "meta_object_id": "1993-036AUM",
        "meta_epoch": "2025-12-11T03:33:58.696128",
        "meta_mean_motion": 14.94658859,
        "meta_eccentricity": 0.00792199,
        "meta_inclination": 73.9916,
        "meta_ra_of_asc_node": 300.6702,
        "meta_arg_of_pericenter": 84.5945,
        "meta_mean_anomaly": 290.8859,
        "meta_ephemeris_type": 0,
        "meta_classification_type": "U",
        "meta_norad_cat_id": 35898,
        "meta_element_set_no": 999,
        "meta_rev_at_epoch": 66786,
        "meta_bstar": 0.001087469,
        "meta_mean_motion_dot": 0.00012532,
        "meta_mean_motion_ddot": 0,
        "tle_line1": "1 35898U 93036AUM 25345.14859602  .00012532  00000+0  10875-2 0  9993",
        "tle_line2": "2 35898  73.9916 300.6702 0079219  84.5945 290.8859 14.94658859667864"
      },
      "geometry": {
        "type": "Point",
        "coordinates": [
          -76.11675239722202,
          -39.78730817202442
        ]
      }
    },
    {
      "type": "Feature",
      "properties": {
        "norad_id": 35901,
        "name": "COSMOS 2251 DEB",
        "group": "cosmos-2251-debris",
        "lat": -40.93499007980225,
        "lon": 8.740592607466716,
        "alt_km": 547.4829316408541,
        "timestamp": "2025-12-12T14:39:18.329241+00:00",
        "meta_object_name": "COSMOS 2251 DEB",
        "meta_object_id": "1993-036AUQ",
        "meta_epoch": "2025-12-07T10:36:21.692736",
        "meta_mean_motion": 15.06319673,
        "meta_eccentricity": 0.00066034,
        "meta_inclination": 74.0121,
        "meta_ra_of_asc_node": 33.7639,
        "meta_arg_of_pericenter": 0.5644,
        "meta_mean_anomaly": 13.1472,
        "meta_ephemeris_type": 0,
        "meta_classification_type": "U",
        "meta_norad_cat_id": 35901,
        "meta_element_set_no": 999,
        "meta_rev_at_epoch": 86047,
        "meta_bstar": 0.0047775116,
        "meta_mean_motion_dot": 0.0007096,
        "meta_mean_motion_ddot": 0,
        "tle_line1": "1 35901U 93036AUQ 25341.44191774  .00070960  00000+0  47775-2 0  9994",
        "tle_line2": "2 35901  74.0121  33.7639 0006603   0.5644  13.1472 15.06319673860474"
      },
      "geometry": {
        "type": "Point",
        "coordinates": [
          8.740592607466716,
          -40.93499007980225
        ]
      }
    }
  ]
}